SKYKRAFT-1A             
1 55054U 23001AX  26068.71064616  .00008177  00000+0  30069-3 0  9991
2 55054  97.3349 127.6290 0011277 121.5092 238.7251 15.28083228176529
STARLINK-30165          
1 57457U 23107A   26068.15803055  .00001619  00000+0  70021-4 0  9990
2 57457  42.9999 339.2931 0001498 275.8397  84.2284 15.26736421145055
